[{"OBJECT_NAME":"STARLINK-32048","OBJECT_ID":"2024-120X","EPOCH":"2026-03-09T22:29:53.329920","MEAN_MOTION":15.30198059,"ECCENTRICITY":0.00010207,"INCLINATION":53.1612,"RA_OF_ASC_NODE":318.809,"ARG_OF_PERICENTER":102.9605,"MEAN_ANOMALY":257.151,"EPHEMERIS_TYPE":0,"CLASSIFICATION_TYPE":"U","NORAD_CAT_ID":60156,"ELEMENT_SET_NO":999,"REV_AT_EPOCH":9641,"BSTAR":6.1185231e-5,"MEAN_MOTION_DOT":1.453e-5,"MEAN_MOTION_DDOT":0},{"OBJECT_NAME":"TLV R\/B","OBJECT_ID":"2023-188B","EPOCH":"2026-03-09T16:54:55.723104","MEAN_MOTION":15.27880264,"ECCENTRICITY":0.01149043,"INCLINATION":46.9277,"RA_OF_ASC_NODE":152.866,"ARG_OF_PERICENTER":233.4436,"MEAN_ANOMALY":125.5857,"EPHEMERIS_TYPE":0,"CLASSIFICATION_TYPE":"U","NORAD_CAT_ID":58501,"ELEMENT_SET_NO":999,"REV_AT_EPOCH":12559,"BSTAR":0.00038559521,"MEAN_MOTION_DOT":0.0001266,"MEAN_MOTION_DDOT":0}]
